{"type": "FeatureCollection", "features": [ {"type": "Feature", "properties": {"norad_id": 66633, "name": "STARLINK-35948", "group": "last-30-days", "lat": 49.059822911344334, "lon": -25.826358966954935, "alt_km": 339.47860244953335, "timestamp": "2025-12-07T05:38:08.685775+00:00", "meta": {"OBJECT_NAME": "STARLINK-35948", "OBJECT_ID": "2025-271S", "EPOCH": "2025-12-06T14:00:01.999872", "MEAN_MOTION": 15.74152922, "ECCENTRICITY": 0.00010824, "INCLINATION": 53.1572, "RA_OF_ASC_NODE": 217.2194, "ARG_OF_PERICENTER": 104.9907, "MEAN_ANOMALY": 270.1432, "EPHEMERIS_TYPE": 0, "CLASSIFICATION_TYPE": "U", "NORAD_CAT_ID": 66633, "ELEMENT_SET_NO": 999, "REV_AT_EPOCH": 325, "BSTAR": 0.00044960579, "MEAN_MOTION_DOT": 0.00065628, "MEAN_MOTION_DDOT": 0}, "tle": {"line1": "1 66633U 25271S   25340.58335648  .00065628  00000+0  44961-3 0  9990", "line2": "2 66633  53.1572 217.2194 0001082 104.9907 270.1432 15.74152922  3253"}}, "geometry": {"type": "Point", "coordinates": [-25.826358966954935, 49.059822911344334]}}, {"type": "Feature", "properties": {"norad_id": 66634, "name": "STARLINK-35967", "group": "last-30-days", "lat": 48.25987864518617, "lon": -23.199716102852925, "alt_km": 339.7035213536901, "timestamp": "2025-12-07T05:38:08.685785+00:00", "meta": {"OBJECT_NAME": "STARLINK-35967", "OBJECT_ID": "2025-271T", "EPOCH": "2025-12-06T14:00:01.999872", "MEAN_MOTION": 15.74175793, "ECCENTRICITY": 0.00010057, "INCLINATION": 53.1571, "RA_OF_ASC_NODE": 217.2151, "ARG_OF_PERICENTER": 108.0094, "MEAN_ANOMALY": 269.0335, "EPHEMERIS_TYPE": 0, "CLASSIFICATION_TYPE": "U", "NORAD_CAT_ID": 66634, "ELEMENT_SET_NO": 999, "REV_AT_EPOCH": 318, "BSTAR": 0.00021508404, "MEAN_MOTION_DOT": 0.00030968, "MEAN_MOTION_DDOT": 0}, "tle": {"line1": "1 66634U 25271T   25340.58335648  .00030968  00000+0  21508-3 0  9992", "line2": "2 66634  53.1571 217.2151 0001005 108.0094 269.0335 15.74175793  3185"}}, "geometry": {"type": "Point", "coordinates": [-23.199716102852925, 48.25987864518617]}}, {"type": "Feature", "properties": {"norad_id": 66635, "name": "STARLINK-35955", "group": "last-30-days", "lat": 47.400372865246474, "lon": -20.651504210381674, "alt_km": 339.7463283627076, "timestamp": "2025-12-07T05:38:08.685794+00:00", "meta": {"OBJECT_NAME": "STARLINK-35955", "OBJECT_ID": "2025-271U", "EPOCH": "2025-12-06T14:00:01.999872", "MEAN_MOTION": 15.74163104, "ECCENTRICITY": 0.00011386, "INCLINATION": 53.1574, "RA_OF_ASC_NODE": 217.211, "ARG_OF_PERICENTER": 105.3114, "MEAN_ANOMALY": 273.6608, "EPHEMERIS_TYPE": 0, "CLASSIFICATION_TYPE": "U", "NORAD_CAT_ID": 66635, "ELEMENT_SET_NO": 999, "REV_AT_EPOCH": 325, "BSTAR": 0.00027463434, "MEAN_MOTION_DOT": 0.00039736, "MEAN_MOTION_DDOT": 0}, "tle": {"line1": "1 66635U 25271U   25340.58335648  .00039736  00000+0  27463-3 0  9991", "line2": "2 66635  53.1574 217.2110 0001138 105.3114 273.6608 15.74163104  3259"}}, "geometry": {"type": "Point", "coordinates": [-20.651504210381674, 47.400372865246474]}}, {"type": "Feature", "properties": {"norad_id": 66636, "name": "STARLINK-35968", "group": "last-30-days", "lat": 46.48946180388914, "lon": -18.1975124322013, "alt_km": 339.9506433605484, "timestamp": "2025-12-07T05:38:08.685804+00:00", "meta": {"OBJECT_NAME": "STARLINK-35968", "OBJECT_ID": "2025-271V", "EPOCH": "2025-12-06T14:00:01.999872", "MEAN_MOTION": 15.74194736, "ECCENTRICITY": 0.00011269, "INCLINATION": 53.1574, "RA_OF_ASC_NODE": 217.2068, "ARG_OF_PERICENTER": 119.4532, "MEAN_ANOMALY": 261.418, "EPHEMERIS_TYPE": 0, "CLASSIFICATION_TYPE": "U", "NORAD_CAT_ID": 66636, "ELEMENT_SET_NO": 999, "REV_AT_EPOCH": 325, "BSTAR": -1.1497239e-05, "MEAN_MOTION_DOT": -2.313e-05, "MEAN_MOTION_DDOT": 0}, "tle": {"line1": "1 66636U 25271V   25340.58335648 -.00002313  00000+0 -11497-4 0  9996", "line2": "2 66636  53.1574 217.2068 0001126 119.4532 261.4180 15.74194736  3254"}}, "geometry": {"type": "Point", "coordinates": [-18.1975124322013, 46.48946180388914]}}, {"type": "Feature", "properties": {"norad_id": 66637, "name": "STARLINK-35953", "group": "last-30-days", "lat": 45.51217692116178, "lon": -15.789854688884747, "alt_km": 340.10113707614255, "timestamp": "2025-12-07T05:38:08.685814+00:00", "meta": {"OBJECT_NAME": "STARLINK-35953", "OBJECT_ID": "2025-271W", "EPOCH": "2025-12-06T14:00:01.999872", "MEAN_MOTION": 15.741724, "ECCENTRICITY": 9.993e-05, "INCLINATION": 53.1573, "RA_OF_ASC_NODE": 217.2031, "ARG_OF_PERICENTER": 106.8107, "MEAN_ANOMALY": 275.9851, "EPHEMERIS_TYPE": 0, "CLASSIFICATION_TYPE": "U", "NORAD_CAT_ID": 66637, "ELEMENT_SET_NO": 999, "REV_AT_EPOCH": 325, "BSTAR": 0.00026073974, "MEAN_MOTION_DOT": 0.000377, "MEAN_MOTION_DDOT": 0}, "tle": {"line1": "1 66637U 25271W   25340.58335648  .00037700  00000+0  26074-3 0  9999", "line2": "2 66637  53.1573 217.2031 0000999 106.8107 275.9851 15.74172400  3258"}}, "geometry": {"type": "Point", "coordinates": [-15.789854688884747, 45.51217692116178]}}, {"type": "Feature", "properties": {"norad_id": 66638, "name": "STARLINK-35972", "group": "last-30-days", "lat": 44.50131225673478, "lon": -13.499901199104727, "alt_km": 340.8779108707604, "timestamp": "2025-12-07T05:38:08.685828+00:00", "meta": {"OBJECT_NAME": "STARLINK-35972", "OBJECT_ID": "2025-271X", "EPOCH": "2025-12-06T14:00:01.999872", "MEAN_MOTION": 15.74229467, "ECCENTRICITY": 2.655e-05, "INCLINATION": 53.1573, "RA_OF_ASC_NODE": 217.1994, "ARG_OF_PERICENTER": 56.3331, "MEAN_ANOMALY": 328.3246, "EPHEMERIS_TYPE": 0, "CLASSIFICATION_TYPE": "U", "NORAD_CAT_ID": 66638, "ELEMENT_SET_NO": 999, "REV_AT_EPOCH": 325, "BSTAR": -0.00013600571, "MEAN_MOTION_DOT": -0.00020531, "MEAN_MOTION_DDOT": 0}, "tle": {"line1": "1 66638U 25271X   25340.58335648 -.00020531  00000+0 -13601-3 0  9998", "line2": "2 66638  53.1573 217.1994 0000265  56.3331 328.3246 15.74229467  3257"}}, "geometry": {"type": "Point", "coordinates": [-13.499901199104727, 44.50131225673478]}}, {"type": "Feature", "properties": {"norad_id": 66639, "name": "STARLINK-35908", "group": "last-30-days", "lat": 43.48911816740975, "lon": -11.377205990278657, "alt_km": 340.8038529928608, "timestamp": "2025-12-07T05:38:08.685838+00:00", "meta": {"OBJECT_NAME": "STARLINK-35908", "OBJECT_ID": "2025-271Y", "EPOCH": "2025-12-06T14:00:01.999872", "MEAN_MOTION": 15.74192968, "ECCENTRICITY": 0.00010713, "INCLINATION": 53.1573, "RA_OF_ASC_NODE": 217.1948, "ARG_OF_PERICENTER": 97.7988, "MEAN_ANOMALY": 288.8825, "EPHEMERIS_TYPE": 0, "CLASSIFICATION_TYPE": "U", "NORAD_CAT_ID": 66639, "ELEMENT_SET_NO": 999, "REV_AT_EPOCH": 325, "BSTAR": -0.00061836534, "MEAN_MOTION_DOT": -0.00090242, "MEAN_MOTION_DDOT": 0}, "tle": {"line1": "1 66639U 25271Y   25340.58335648 -.00090242  00000+0 -61837-3 0  9999", "line2": "2 66639  53.1573 217.1948 0001071  97.7988 288.8825 15.74192968  3258"}}, "geometry": {"type": "Point", "coordinates": [-11.377205990278657, 43.48911816740975]}}, {"type": "Feature", "properties": {"norad_id": 66640, "name": "STARLINK-35921", "group": "last-30-days", "lat": 42.33583427910161, "lon": -9.131219406243671, "alt_km": 340.77682469806405, "timestamp": "2025-12-07T05:38:08.685848+00:00", "meta": {"OBJECT_NAME": "STARLINK-35921", "OBJECT_ID": "2025-271Z", "EPOCH": "2025-12-06T14:00:01.999872", "MEAN_MOTION": 15.74180151, "ECCENTRICITY": 7.017e-05, "INCLINATION": 53.1573, "RA_OF_ASC_NODE": 217.1915, "ARG_OF_PERICENTER": 109.0279, "MEAN_ANOMALY": 279.5039, "EPHEMERIS_TYPE": 0, "CLASSIFICATION_TYPE": "U", "NORAD_CAT_ID": 66640, "ELEMENT_SET_NO": 999, "REV_AT_EPOCH": 325, "BSTAR": 0.0002326617, "MEAN_MOTION_DOT": 0.00033567, "MEAN_MOTION_DDOT": 0}, "tle": {"line1": "1 66640U 25271Z   25340.58335648  .00033567  00000+0  23266-3 0  9990", "line2": "2 66640  53.1573 217.1915 0000701 109.0279 279.5039 15.74180151  3258"}}, "geometry": {"type": "Point", "coordinates": [-9.131219406243671, 42.33583427910161]}}, {"type": "Feature", "properties": {"norad_id": 66641, "name": "STARLINK-35923", "group": "last-30-days", "lat": 37.58406249414543, "lon": -1.3061349427155065, "alt_km": 341.7459913698476, "timestamp": "2025-12-07T05:38:08.685858+00:00", "meta": {"OBJECT_NAME": "STARLINK-35923", "OBJECT_ID": "2025-271AA", "EPOCH": "2025-12-06T14:00:01.999872", "MEAN_MOTION": 15.74168756, "ECCENTRICITY": 5.377e-05, "INCLINATION": 53.1572, "RA_OF_ASC_NODE": 217.1746, "ARG_OF_PERICENTER": 95.3509, "MEAN_ANOMALY": 300.8672, "EPHEMERIS_TYPE": 0, "CLASSIFICATION_TYPE": "U", "NORAD_CAT_ID": 66641, "ELEMENT_SET_NO": 999, "REV_AT_EPOCH": 325, "BSTAR": 0.00016390661, "MEAN_MOTION_DOT": 0.00023421, "MEAN_MOTION_DDOT": 0}, "tle": {"line1": "1 66641U 25271AA  25340.58335648  .00023421  00000+0  16391-3 0  9990", "line2": "2 66641  53.1572 217.1746 0000537  95.3509 300.8672 15.74168756  3258"}}, "geometry": {"type": "Point", "coordinates": [-1.3061349427155065, 37.58406249414543]}}, {"type": "Feature", "properties": {"norad_id": 66642, "name": "STARLINK-35926", "group": "last-30-days", "lat": 38.82700926588405, "lon": -3.1708902389667717, "alt_km": 341.5250142561017, "timestamp": "2025-12-07T05:38:08.685867+00:00", "meta": {"OBJECT_NAME": "STARLINK-35926", "OBJECT_ID": "2025-271AB", "EPOCH": "2025-12-06T14:00:01.999872", "MEAN_MOTION": 15.74161389, "ECCENTRICITY": 6.059e-05, "INCLINATION": 53.1576, "RA_OF_ASC_NODE": 217.1794, "ARG_OF_PERICENTER": 91.359, "MEAN_ANOMALY": 302.9477, "EPHEMERIS_TYPE": 0, "CLASSIFICATION_TYPE": "U", "NORAD_CAT_ID": 66642, "ELEMENT_SET_NO": 999, "REV_AT_EPOCH": 301, "BSTAR": 0.00019274236, "MEAN_MOTION_DOT": 0.00027658, "MEAN_MOTION_DDOT": 0}, "tle": {"line1": "1 66642U 25271AB  25340.58335648  .00027658  00000+0  19274-3 0  9990", "line2": "2 66642  53.1576 217.1794 0000605  91.3590 302.9477 15.74161389  3013"}}, "geometry": {"type": "Point", "coordinates": [-3.1708902389667717, 38.82700926588405]}}]}